[{"OBJECT_NAME":"239ALFEROV (RS61S)","OBJECT_ID":"2025-155F","EPOCH":"2026-03-09T21:46:33.382848","MEAN_MOTION":15.29933217,"ECCENTRICITY":0.00084878,"INCLINATION":97.4469,"RA_OF_ASC_NODE":37.6373,"ARG_OF_PERICENTER":151.5904,"MEAN_ANOMALY":208.58,"EPHEMERIS_TYPE":0,"CLASSIFICATION_TYPE":"U","NORAD_CAT_ID":64881,"ELEMENT_SET_NO":999,"REV_AT_EPOCH":6561,"BSTAR":0.00067233359,"MEAN_MOTION_DOT":0.00019457,"MEAN_MOTION_DDOT":0},{"OBJECT_NAME":"STARLINK-34833","OBJECT_ID":"2025-176W","EPOCH":"2026-03-09T11:01:14.397024","MEAN_MOTION":15.3017599,"ECCENTRICITY":0.00010283,"INCLINATION":53.1574,"RA_OF_ASC_NODE":153.9056,"ARG_OF_PERICENTER":74.9373,"MEAN_ANOMALY":285.1742,"EPHEMERIS_TYPE":0,"CLASSIFICATION_TYPE":"U","NORAD_CAT_ID":65218,"ELEMENT_SET_NO":999,"REV_AT_EPOCH":3308,"BSTAR":0.0010451078,"MEAN_MOTION_DOT":0.00030699,"MEAN_MOTION_DDOT":0}]
